{
  "type": "FeatureCollection",
  "features": [
    {
      "type": "Feature",
      "properties": {
        "norad_id": 55973,
        "name": "TIANMU-1 03",
        "group": "weather",
        "lat": -19.428141583120986,
        "lon": 162.5532522318497,
        "alt_km": 446.1096374011031,
        "timestamp": "2025-12-22T22:44:20.594192+00:00",
        "meta_object_name": "TIANMU-1 03",
        "meta_object_id": "2023-039A",
        "meta_epoch": "2025-12-22T15:01:57.655200",
        "meta_mean_motion": 15.41196466,
        "meta_eccentricity": 0.00039276,
        "meta_inclination": 97.511,
        "meta_ra_of_asc_node": 159.5558,
        "meta_arg_of_pericenter": 32.7494,
        "meta_mean_anomaly": 327.3995,
        "meta_ephemeris_type": 0,
        "meta_classification_type": "U",
        "meta_norad_cat_id": 55973,
        "meta_element_set_no": 999,
        "meta_rev_at_epoch": 15358,
        "meta_bstar": 0.00038312942,
        "meta_mean_motion_dot": 0.0001583,
        "meta_mean_motion_ddot": 0,
        "tle_line1": "1 55973U 23039A   25356.62636175  .00015830  00000+0  38313-3 0  9990",
        "tle_line2": "2 55973  97.5110 159.5558 0003927  32.7494 327.3995 15.41196466153585"
      },
      "geometry": {
        "type": "Point",
        "coordinates": [
          162.5532522318497,
          -19.428141583120986
        ]
      }
    },
    {
      "type": "Feature",
      "properties": {
        "norad_id": 55974,
        "name": "TIANMU-1 04",
        "group": "weather",
        "lat": 71.40514385559788,
        "lon": 2.139888310087441,
        "alt_km": 434.2285752991602,
        "timestamp": "2025-12-22T22:44:20.594203+00:00",
        "meta_object_name": "TIANMU-1 04",
        "meta_object_id": "2023-039B",
        "meta_epoch": "2025-12-22T19:09:39.508416",
        "meta_mean_motion": 15.41544209,
        "meta_eccentricity": 0.0004527,
        "meta_inclination": 97.5041,
        "meta_ra_of_asc_node": 158.9196,
        "meta_arg_of_pericenter": 25.7049,
        "meta_mean_anomaly": 334.4422,
        "meta_ephemeris_type": 0,
        "meta_classification_type": "U",
        "meta_norad_cat_id": 55974,
        "meta_element_set_no": 999,
        "meta_rev_at_epoch": 15361,
        "meta_bstar": 0.00039688,
        "meta_mean_motion_dot": 0.00016595,
        "meta_mean_motion_ddot": 0,
        "tle_line1": "1 55974U 23039B   25356.79837394  .00016595  00000+0  39688-3 0  9990",
        "tle_line2": "2 55974  97.5041 158.9196 0004527  25.7049 334.4422 15.41544209153615"
      },
      "geometry": {
        "type": "Point",
        "coordinates": [
          2.139888310087441,
          71.40514385559788
        ]
      }
    },
    {
      "type": "Feature",
      "properties": {
        "norad_id": 55975,
        "name": "TIANMU-1 05",
        "group": "weather",
        "lat": 54.34367036943829,
        "lon": -9.839974992121137,
        "alt_km": 436.84950217597816,
        "timestamp": "2025-12-22T22:44:20.594213+00:00",
        "meta_object_name": "TIANMU-1 05",
        "meta_object_id": "2023-039C",
        "meta_epoch": "2025-12-22T14:24:28.522368",
        "meta_mean_motion": 15.41152299,
        "meta_eccentricity": 0.00040474,
        "meta_inclination": 97.5087,
        "meta_ra_of_asc_node": 159.2089,
        "meta_arg_of_pericenter": 51.5703,
        "meta_mean_anomaly": 308.5906,
        "meta_ephemeris_type": 0,
        "meta_classification_type": "U",
        "meta_norad_cat_id": 55975,
        "meta_element_set_no": 999,
        "meta_rev_at_epoch": 15356,
        "meta_bstar": 0.00038491467,
        "meta_mean_motion_dot": 0.00015881,
        "meta_mean_motion_ddot": 0,
        "tle_line1": "1 55975U 23039C   25356.60033012  .00015881  00000+0  38491-3 0  9994",
        "tle_line2": "2 55975  97.5087 159.2089 0004047  51.5703 308.5906 15.41152299153569"
      },
      "geometry": {
        "type": "Point",
        "coordinates": [
          -9.839974992121137,
          54.34367036943829
        ]
      }
    },
    {
      "type": "Feature",
      "properties": {
        "norad_id": 55976,
        "name": "TIANMU-1 06",
        "group": "weather",
        "lat": 79.82797589057135,
        "lon": 27.3676142889005,
        "alt_km": 432.2229537509611,
        "timestamp": "2025-12-22T22:44:20.594223+00:00",
        "meta_object_name": "TIANMU-1 06",
        "meta_object_id": "2023-039D",
        "meta_epoch": "2025-12-22T19:12:18.309888",
        "meta_mean_motion": 15.41595485,
        "meta_eccentricity": 0.0004307,
        "meta_inclination": 97.5099,
        "meta_ra_of_asc_node": 159.8877,
        "meta_arg_of_pericenter": 44.9716,
        "meta_mean_anomaly": 315.1879,
        "meta_ephemeris_type": 0,
        "meta_classification_type": "U",
        "meta_norad_cat_id": 55976,
        "meta_element_set_no": 999,
        "meta_rev_at_epoch": 15361,
        "meta_bstar": 0.00038987,
        "meta_mean_motion_dot": 0.00016327,
        "meta_mean_motion_ddot": 0,
        "tle_line1": "1 55976U 23039D   25356.80021192  .00016327  00000+0  38987-3 0  9999",
        "tle_line2": "2 55976  97.5099 159.8877 0004307  44.9716 315.1879 15.41595485153610"
      },
      "geometry": {
        "type": "Point",
        "coordinates": [
          27.3676142889005,
          79.82797589057135
        ]
      }
    },
    {
      "type": "Feature",
      "properties": {
        "norad_id": 56232,
        "name": "FENGYUN 3G",
        "group": "weather",
        "lat": -3.8662722277571637,
        "lon": 171.49908539949746,
        "alt_km": 411.4038585170474,
        "timestamp": "2025-12-22T22:44:20.594233+00:00",
        "meta_object_name": "FENGYUN 3G",
        "meta_object_id": "2023-055A",
        "meta_epoch": "2025-12-22T13:30:09.673344",
        "meta_mean_motion": 15.5419902,
        "meta_eccentricity": 0.0009299,
        "meta_inclination": 49.9921,
        "meta_ra_of_asc_node": 176.742,
        "meta_arg_of_pericenter": 192.777,
        "meta_mean_anomaly": 167.2963,
        "meta_ephemeris_type": 0,
        "meta_classification_type": "U",
        "meta_norad_cat_id": 56232,
        "meta_element_set_no": 999,
        "meta_rev_at_epoch": 15255,
        "meta_bstar": 0.00048213619,
        "meta_mean_motion_dot": 0.00031749,
        "meta_mean_motion_ddot": 0,
        "tle_line1": "1 56232U 23055A   25356.56261196  .00031749  00000+0  48214-3 0  9995",
        "tle_line2": "2 56232  49.9921 176.7420 0009299 192.7770 167.2963 15.54199020152551"
      },
      "geometry": {
        "type": "Point",
        "coordinates": [
          171.49908539949746,
          -3.8662722277571637
        ]
      }
    },
    {
      "type": "Feature",
      "properties": {
        "norad_id": 57166,
        "name": "METEOR-M2 3",
        "group": "weather",
        "lat": -12.519686262463052,
        "lon": 52.241853301112116,
        "alt_km": 813.7774062558119,
        "timestamp": "2025-12-22T22:44:20.594245+00:00",
        "meta_object_name": "METEOR-M2 3",
        "meta_object_id": "2023-091A",
        "meta_epoch": "2025-12-22T14:22:00.355008",
        "meta_mean_motion": 14.24027271,
        "meta_eccentricity": 0.00033697,
        "meta_inclination": 98.6363,
        "meta_ra_of_asc_node": 49.9652,
        "meta_arg_of_pericenter": 338.7447,
        "meta_mean_anomaly": 21.3591,
        "meta_ephemeris_type": 0,
        "meta_classification_type": "U",
        "meta_norad_cat_id": 57166,
        "meta_element_set_no": 999,
        "meta_rev_at_epoch": 12938,
        "meta_bstar": 2.9352616e-05,
        "meta_mean_motion_dot": 2.4e-07,
        "meta_mean_motion_ddot": 0,
        "tle_line1": "1 57166U 23091A   25356.59861522  .00000024  00000+0  29353-4 0  9990",
        "tle_line2": "2 57166  98.6363  49.9652 0003369 338.7447  21.3591 14.24027271129388"
      },
      "geometry": {
        "type": "Point",
        "coordinates": [
          52.241853301112116,
          -12.519686262463052
        ]
      }
    },
    {
      "type": "Feature",
      "properties": {
        "norad_id": 57399,
        "name": "TIANMU-1 07",
        "group": "weather",
        "lat": 33.52382222882488,
        "lon": 41.71002819192908,
        "alt_km": 475.8839833877282,
        "timestamp": "2025-12-22T22:44:20.594256+00:00",
        "meta_object_name": "TIANMU-1 07",
        "meta_object_id": "2023-101A",
        "meta_epoch": "2025-12-22T19:26:55.089312",
        "meta_mean_motion": 15.28206595,
        "meta_eccentricity": 0.0005143,
        "meta_inclination": 97.2858,
        "meta_ra_of_asc_node": 46.4381,
        "meta_arg_of_pericenter": 56.1166,
        "meta_mean_anomaly": 304.0563,
        "meta_ephemeris_type": 0,
        "meta_classification_type": "U",
        "meta_norad_cat_id": 57399,
        "meta_element_set_no": 999,
        "meta_rev_at_epoch": 13469,
        "meta_bstar": 0.00028435,
        "meta_mean_motion_dot": 7.747e-05,
        "meta_mean_motion_ddot": 0,
        "tle_line1": "1 57399U 23101A   25356.81035983  .00007747  00000+0  28435-3 0  9997",
        "tle_line2": "2 57399  97.2858  46.4381 0005143  56.1166 304.0563 15.28206595134695"
      },
      "geometry": {
        "type": "Point",
        "coordinates": [
          41.71002819192908,
          33.52382222882488
        ]
      }
    }
  ]
}